[{"OBJECT_NAME":"COSMOS 2503","OBJECT_ID":"2015-009A","EPOCH":"2026-03-09T16:42:37.703808","MEAN_MOTION":15.06275973,"ECCENTRICITY":0.00153206,"INCLINATION":97.8437,"RA_OF_ASC_NODE":123.7175,"ARG_OF_PERICENTER":225.745,"MEAN_ANOMALY":134.252,"EPHEMERIS_TYPE":0,"CLASSIFICATION_TYPE":"U","NORAD_CAT_ID":40420,"ELEMENT_SET_NO":999,"REV_AT_EPOCH":60395,"BSTAR":0.00019589832,"MEAN_MOTION_DOT":2.817e-5,"MEAN_MOTION_DDOT":0},{"OBJECT_NAME":"STARLINK-4107","OBJECT_ID":"2022-086AX","EPOCH":"2026-03-09T14:03:01.319616","MEAN_MOTION":15.08839066,"ECCENTRICITY":0.0001371,"INCLINATION":53.2173,"RA_OF_ASC_NODE":184.5907,"ARG_OF_PERICENTER":80.5395,"MEAN_ANOMALY":279.5752,"EPHEMERIS_TYPE":0,"CLASSIFICATION_TYPE":"U","NORAD_CAT_ID":53287,"ELEMENT_SET_NO":999,"REV_AT_EPOCH":20117,"BSTAR":3.3589e-5,"MEAN_MOTION_DOT":2.47e-6,"MEAN_MOTION_DDOT":0}]
